API VERSION: 1.2
API SOURCE: NASA/JPL Horizons API

*******************************************************************************
 Revised: April 12, 2021                Venus                           299 / 2
 
 PHYSICAL DATA (updated 2020-Oct-19):
  Vol. Mean Radius (km) =  6051.84+-0.01 Density (g/cm^3)      =  5.204
  Mass x10^23 (kg)      =    48.685      Volume (x10^10 km^3)  = 92.843
  Sidereal rot. period  =   243.018484 d Sid. Rot. Rate (rad/s)= -0.00000029924
  Mean solar day        =   116.7490 d   Equ. gravity  m/s^2   =  8.870
  Mom. of Inertia       =     0.33       Core radius (km)      = ~3200
  Geometric Albedo      =     0.65       Potential Love # k2   = ~0.25
  GM (km^3/s^2)         = 324858.592     Equatorial Radius, Re = 6051.893 km
  GM 1-sigma (km^3/s^2) =    +-0.006     Mass ratio (Sun/Venus)= 408523.72
  Atmos. pressure (bar) =  90            Max. angular diam.    =   60.2"
  Mean Temperature (K)  = 735            Visual mag. V(1,0)    =   -4.40
  Obliquity to orbit    = 177.3 deg      Hill's sphere rad.,Rp =  167.1
  Sidereal orb. per., y =   0.61519726   Orbit speed, km/s     =   35.021
  Sidereal orb. per., d = 224.70079922   Escape speed, km/s    =   10.361
                                 Perihelion  Aphelion    Mean
  Solar Constant (W/m^2)         2759         2614       2650
  Maximum Planetary IR (W/m^2)    153         153         153
  Minimum Planetary IR (W/m^2)    153         153         153
*******************************************************************************


*******************************************************************************
Ephemeris / API_USER Thu Feb 19 13:06:36 2026 Pasadena, USA      / Horizons
*******************************************************************************
Target body name: Venus (299)                     {source: DE441}
Center body name: Earth (399)                     {source: DE441}
Center-site name: BODY CENTER
*******************************************************************************
Start time      : A.D. 2025-May-15 08:45:00.0000 TDB
Stop  time      : A.D. 2025-May-18 08:45:00.0000 TDB
Step-size       : 60 minutes
*******************************************************************************
Center geodetic : 0.0, 0.0, 0.0                   {E-lon(deg),Lat(deg),Alt(km)}
Center cylindric: 0.0, 0.0, 0.0                   {E-lon(deg),Dxy(km),Dz(km)}
Center radii    : 6378.137, 6378.137, 6356.752 km {Equator_a, b, pole_c}
Output units    : AU-D
Calendar mode   : Mixed Julian/Gregorian
Output type     : GEOMETRIC cartesian states
Output format   : 3 (position, velocity, LT, range, range-rate)
EOP file        : eop.260218.p260517
EOP coverage    : DATA-BASED 1962-JAN-20 TO 2026-FEB-18. PREDICTS-> 2026-MAY-16
Reference frame : Ecliptic of J2000.0
*******************************************************************************
JDTDB
   X     Y     Z
   VX    VY    VZ
   LT    RG    RR
*******************************************************************************
$$SOE
2460812.781250000 = A.D. 2025-May-17 06:45:00.0000 TDB 
 X = 5.698377827475992E-01 Y = 1.141562509572258E-01 Z =-1.052454761840576E-02
 VX= 6.065691278873736E-03 VY= 9.776877366811206E-03 VZ=-1.157215861796302E-03
 LT= 3.357049600084542E-03 RG= 5.812551198758436E-01 RR= 7.887639613170428E-03
2460812.822916667 = A.D. 2025-May-17 07:45:00.0000 TDB 
 X = 5.700903742717043E-01 Y = 1.145638990931615E-01 Z =-1.057275781211680E-02
 VX= 6.058698495858806E-03 VY= 9.790232286678619E-03 VZ=-1.156873182133462E-03
 LT= 3.358947841551991E-03 RG= 5.815837901974519E-01 RR= 7.888535227760809E-03
2460812.864583333 = A.D. 2025-May-17 08:45:00.0000 TDB 
 X = 5.703426740070919E-01 Y = 1.149721035749497E-01 Z =-1.062095369574053E-02
 VX= 6.051685421162306E-03 VY= 9.803581962600371E-03 VZ=-1.156528977771757E-03
 LT= 3.360846298115759E-03 RG= 5.819124977618336E-01 RR= 7.889427267060925E-03
2460812.906250000 = A.D. 2025-May-17 09:45:00.0000 TDB 
 X = 5.705946811083656E-01 Y = 1.153808641834504E-01 Z =-1.066913520576803E-02
 VX= 6.044652059119149E-03 VY= 9.816926363723593E-03 VZ=-1.156183249672291E-03
 LT= 3.362744968916012E-03 RG= 5.822412424201125E-01 RR= 7.890315735576869E-03
2460812.947916667 = A.D. 2025-May-17 10:45:00.0000 TDB 
 X = 5.708463947303110E-01 Y = 1.157901806982372E-01 Z =-1.071730227873028E-02
 VX= 6.037598414135102E-03 VY= 9.830265459186027E-03 VZ=-1.155835998798913E-03
 LT= 3.364643853093994E-03 RG= 5.825700240236003E-01 RR= 7.891200637825450E-03
2460812.989583333 = A.D. 2025-May-17 11:45:00.0000 TDB 
 X = 5.710978140278982E-01 Y = 1.162000528975974E-01 Z =-1.076545485119841E-02
 VX= 6.030524490687054E-03 VY= 9.843599218116214E-03 VZ=-1.155487226118206E-03
 LT= 3.366542949792039E-03 RG= 5.828988424237961E-01 RR= 7.892081978334436E-03
2460813.031250000 = A.D. 2025-May-17 12:45:00.0000 TDB 
 X = 5.713489381562861E-01 Y = 1.166104805585327E-01 Z =-1.081359285978407E-02
 VX= 6.023430293323350E-03 VY= 9.856927609633618E-03 VZ=-1.155136932599468E-03
 LT= 3.368442258153574E-03 RG= 5.832276974723891E-01 RR= 7.892959761642853E-03
2460813.072916667 = A.D. 2025-May-17 13:45:00.0000 TDB 
 X = 5.715997662708239E-01 Y = 1.170214634567572E-01 Z =-1.086171624113912E-02
 VX= 6.016315826664060E-03 VY= 9.870250602848806E-03 VZ=-1.154785119214691E-03
 LT= 3.370341777323116E-03 RG= 5.835565890212574E-01 RR= 7.893833992301199E-03
2460813.114583333 = A.D. 2025-May-17 14:45:00.0000 TDB 
 X = 5.718502975270551E-01 Y = 1.174330013666979E-01 Z =-1.090982493195619E-02
 VX= 6.009181095401334E-03 VY= 9.883568166863616E-03 VZ=-1.154431786938552E-03
 LT= 3.372241506446282E-03 RG= 5.838855169224685E-01 RR= 7.894704674871782E-03
2460813.156250000 = A.D. 2025-May-17 15:45:00.0000 TDB 
 X = 5.721005310807206E-01 Y = 1.178450940614943E-01 Z =-1.095791886896853E-02
 VX= 6.002026104299687E-03 VY= 9.896880270771322E-03 VZ=-1.154076936748395E-03
 LT= 3.374141444669788E-03 RG= 5.842144810282811E-01 RR= 7.895571813928958E-03
2460813.197916667 = A.D. 2025-May-17 16:45:00.0000 TDB 
 X = 5.723504660877607E-01 Y = 1.182577413129980E-01 Z =-1.100599798895007E-02
 VX= 5.994850858196329E-03 VY= 9.910186883656812E-03 VZ=-1.153720569624211E-03
 LT= 3.376041591141450E-03 RG= 5.845434811911444E-01 RR= 7.896435414059419E-03
2460813.239583333 = A.D. 2025-May-17 17:45:00.0000 TDB 
 X = 5.726001017043189E-01 Y = 1.186709428917720E-01 Z =-1.105406222871567E-02
 VX= 5.987655362001512E-03 VY= 9.923487974596759E-03 VZ=-1.153362686548622E-03
 LT= 3.377941945010189E-03 RG= 5.848725172636980E-01 RR= 7.897295479862529E-03
2460813.281250000 = A.D. 2025-May-17 18:45:00.0000 TDB 
 X = 5.728494370867453E-01 Y = 1.190846985670912E-01 Z =-1.110211152512127E-02
 VX= 5.980439620698843E-03 VY= 9.936783512659805E-03 VZ=-1.153003288506863E-03
 LT= 3.379842505426038E-03 RG= 5.852015890987755E-01 RR= 7.898152015950568E-03
2460813.322916667 = A.D. 2025-May-17 19:45:00.0000 TDB 
 X = 5.730984713915988E-01 Y = 1.194990081069406E-01 Z =-1.115014581506371E-02
 VX= 5.973203639345610E-03 VY= 9.950073466906755E-03 VZ=-1.152642376486769E-03
 LT= 3.381743271540139E-03 RG= 5.855306965494013E-01 RR= 7.899005026949048E-03
2460813.364583333 = A.D. 2025-May-17 20:45:00.0000 TDB 
 X = 5.733472037756502E-01 Y = 1.199138712780172E-01 Z =-1.119816503548141E-02
 VX= 5.965947423073175E-03 VY= 9.963357806390757E-03 VZ=-1.152279951478746E-03
 LT= 3.383644242504748E-03 RG= 5.858598394687928E-01 RR= 7.899854517497078E-03
2460813.406250000 = A.D. 2025-May-17 21:45:00.0000 TDB 
 X = 5.735956333958865E-01 Y = 1.203292878457272E-01 Z =-1.124616912335372E-02
 VX= 5.958670977087267E-03 VY= 9.976636500157494E-03 VZ=-1.151916014475761E-03
 LT= 3.385545417473242E-03 RG= 5.861890177103620E-01 RR= 7.900700492247593E-03
2460813.447916667 = A.D. 2025-May-17 22:45:00.0000 TDB 
 X = 5.738437594095125E-01 Y = 1.207452575741875E-01 Z =-1.129415801570165E-02
 VX= 5.951374306668364E-03 VY= 9.989909517245389E-03 VZ=-1.151550566473316E-03
 LT= 3.387446795600115E-03 RG= 5.865182311277144E-01 RR= 7.901542955867737E-03
2460813.489583333 = A.D. 2025-May-17 23:45:00.0000 TDB 
 X = 5.740915809739550E-01 Y = 1.211617802262248E-01 Z =-1.134213164958760E-02
 VX= 5.944057417172045E-03 VY= 1.000317682668581E-02 VZ=-1.151183608469437E-03
 LT= 3.389348376040991E-03 RG= 5.868474795746504E-01 RR= 7.902381913039170E-03
2460813.531250000 = A.D. 2025-May-18 00:45:00.0000 TDB 
 X = 5.743390972468650E-01 Y = 1.215788555633749E-01 Z =-1.139008996211577E-02
 VX= 5.936720314029360E-03 VY= 1.001643839750328E-02 VZ=-1.150815141464639E-03
 LT= 3.391250157952618E-03 RG= 5.871767629051655E-01 RR= 7.903217368458407E-03
2460813.572916667 = A.D. 2025-May-18 01:45:00.0000 TDB 
 X = 5.745863073861222E-01 Y = 1.219964833458832E-01 Z =-1.143803289043185E-02
 VX= 5.929363002747197E-03 VY= 1.002969419871567E-02 VZ=-1.150445166461919E-03
 LT= 3.393152140492879E-03 RG= 5.875060809734520E-01 RR= 7.904049326837156E-03
2460813.614583333 = A.D. 2025-May-18 02:45:00.0000 TDB 
 X = 5.748332105498363E-01 Y = 1.224146633327041E-01 Z =-1.148596037172378E-02
 VX= 5.921985488908648E-03 VY= 1.004294419933446E-02 VZ=-1.150073684466730E-03
 LT= 3.395054322820791E-03 RG= 5.878354336338976E-01 RR= 7.904877792902670E-03
2460813.656250000 = A.D. 2025-May-18 03:45:00.0000 TDB 
 X = 5.750798058963520E-01 Y = 1.228333952815002E-01 Z =-1.153387234322100E-02
 VX= 5.914587778173406E-03 VY= 1.005618836836494E-02 VZ=-1.149700696486954E-03
 LT= 3.396956704096512E-03 RG= 5.881648207410886E-01 RR= 7.905702771398094E-03
2460813.697916667 = A.D. 2025-May-18 04:45:00.0000 TDB 
 X = 5.753260925842513E-01 Y = 1.232526789486431E-01 Z =-1.158176874219529E-02
 VX= 5.907169876278142E-03 VY= 1.006942667480643E-02 VZ=-1.149326203532883E-03
 LT= 3.398859283481341E-03 RG= 5.884942421498086E-01 RR= 7.906524267082831E-03
